start=new Date('2022-09-16T00:00:00.000Z').valueOf();
sats=[{"ECCENTRICITY":"0.00016220","REV_AT_EPOCH":"14488","PERIOD":"95.592","MEAN_MOTION_DDOT":"0.0000000000000","BSTAR":"-0.00004871100000","TIME_SYSTEM":"UTC","COUNTRY_CODE":"US","EPHEMERIS_TYPE":"0","FILE":"3575050","NORAD_CAT_ID":"45050","ELEMENT_SET_NO":"999","SITE":"AFETR","MEAN_MOTION":"15.06398115","LAUNCH_DATE":"2020-01-29","CENTER_NAME":"EARTH","OBJECT_NAME":"STARLINK-1140","OBJECT_ID":"2020-006G","DECAY_DATE":null,"OBJECT_TYPE":"PAYLOAD","INCLINATION":"53.0551","TLE_LINE2":"2 45050  53.0551 232.5027 0001622  79.2387 280.8785 15.06398115144885","GP_ID":"212677895","MEAN_ELEMENT_THEORY":"SGP4","MEAN_ANOMALY":"280.8785","RA_OF_ASC_NODE":"232.5027","MEAN_MOTION_DOT":"-0.00001007","RCS_SIZE":"LARGE","CLASSIFICATION_TYPE":"U","ARG_OF_PERICENTER":"79.2387","TLE_LINE1":"1 45050U 20006G   22258.65485329 -.00001007  00000-0 -48711-4 0  9998","PERIAPSIS":"546.096","REF_FRAME":"TEME","SEMIMAJOR_AXIS":"6925.354","APOAPSIS":"548.343","EPOCH":"2022-09-15T15:42:59.324256"},{"MEAN_ELEMENT_THEORY":"SGP4","MEAN_ANOMALY":"267.7524","RA_OF_ASC_NODE":"223.8207","MEAN_MOTION_DOT":"0.00027053","RCS_SIZE":"LARGE","CLASSIFICATION_TYPE":"U","DECAY_DATE":null,"OBJECT_TYPE":"PAYLOAD","INCLINATION":"53.0499","TLE_LINE2":"2 45051  53.0499 223.8207 0001886  92.3685 267.7524 15.15411371145009","GP_ID":"212679144","REF_FRAME":"TEME","SEMIMAJOR_AXIS":"6897.867","APOAPSIS":"521.033","EPOCH":"2022-09-15T14:31:27.131232","ARG_OF_PERICENTER":"92.3685","TLE_LINE1":"1 45051U 20006H   22258.60517513  .00027053  00000-0  14260-2 0  9992","PERIAPSIS":"518.431","TIME_SYSTEM":"UTC","COUNTRY_CODE":"US","EPHEMERIS_TYPE":"0","ECCENTRICITY":"0.00018860","PERIOD":"95.024","REV_AT_EPOCH":"14500","MEAN_MOTION_DDOT":"0.0000000000000","BSTAR":"0.00142600000000","OBJECT_NAME":"STARLINK-1141","OBJECT_ID":"2020-006H","FILE":"3575050","NORAD_CAT_ID":"45051","ELEMENT_SET_NO":"999","SITE":"AFETR","CENTER_NAME":"EARTH","LAUNCH_DATE":"2020-01-29","MEAN_MOTION":"15.15411371"},{"PERIAPSIS":"546.201","TLE_LINE1":"1 45052U 20006J   22258.79491933  .00001731  00000-0  13506-3 0  9998","ARG_OF_PERICENTER":"86.3123","EPOCH":"2022-09-15T19:04:41.030112","APOAPSIS":"548.255","SEMIMAJOR_AXIS":"6925.363","REF_FRAME":"TEME","GP_ID":"212679391","TLE_LINE2":"2 45052  53.0531 231.8773 0001483  86.3123 273.8035 15.06395391144903","OBJECT_TYPE":"PAYLOAD","INCLINATION":"53.0531","DECAY_DATE":null,"RA_OF_ASC_NODE":"231.8773","MEAN_MOTION_DOT":"0.00001731","RCS_SIZE":"LARGE","CLASSIFICATION_TYPE":"U","MEAN_ANOMALY":"273.8035","MEAN_ELEMENT_THEORY":"SGP4","SITE":"AFETR","LAUNCH_DATE":"2020-01-29","MEAN_MOTION":"15.06395391","CENTER_NAME":"EARTH","ELEMENT_SET_NO":"999","FILE":"3575050","NORAD_CAT_ID":"45052","OBJECT_ID":"2020-006J","OBJECT_NAME":"STARLINK-1148","BSTAR":"0.00013506000000","PERIOD":"95.592","REV_AT_EPOCH":"14490","MEAN_MOTION_DDOT":"0.0000000000000","ECCENTRICITY":"0.00014830","EPHEMERIS_TYPE":"0","COUNTRY_CODE":"US","TIME_SYSTEM":"UTC"},{"TLE_LINE1":"1 45053U 20006K   22258.31439235  .00028835  00000-0  15106-2 0  9995","ARG_OF_PERICENTER":"85.8465","PERIAPSIS":"517.973","SEMIMAJOR_AXIS":"6897.310","REF_FRAME":"TEME","EPOCH":"2022-09-15T07:32:43.499040","APOAPSIS":"520.377","INCLINATION":"53.0028","OBJECT_TYPE":"PAYLOAD","DECAY_DATE":null,"GP_ID":"212642483","TLE_LINE2":"2 45053  53.0028 220.4541 0001743  85.8465 274.2727 15.15594930144985","MEAN_ELEMENT_THEORY":"SGP4","RCS_SIZE":"LARGE","CLASSIFICATION_TYPE":"U","MEAN_MOTION_DOT":"0.00028835","RA_OF_ASC_NODE":"220.4541","MEAN_ANOMALY":"274.2727","ELEMENT_SET_NO":"999","NORAD_CAT_ID":"45053","FILE":"3574601","LAUNCH_DATE":"2020-01-29","CENTER_NAME":"EARTH","MEAN_MOTION":"15.15594930","SITE":"AFETR","OBJECT_NAME":"STARLINK-1155","OBJECT_ID":"2020-006K","MEAN_MOTION_DDOT":"0.0000000000000","PERIOD":"95.012","REV_AT_EPOCH":"14498","ECCENTRICITY":"0.00017430","BSTAR":"0.00151060000000","TIME_SYSTEM":"UTC","EPHEMERIS_TYPE":"0","COUNTRY_CODE":"US"},{"ARG_OF_PERICENTER":"85.1409","TLE_LINE1":"1 45054U 20006L   22258.65853830  .00000138  00000-0  28196-4 0  9995","PERIAPSIS":"546.240","REF_FRAME":"TEME","SEMIMAJOR_AXIS":"6925.362","APOAPSIS":"548.213","EPOCH":"2022-09-15T15:48:17.709120","DECAY_DATE":null,"OBJECT_TYPE":"PAYLOAD","INCLINATION":"53.0542","TLE_LINE2":"2 45054  53.0542 232.5028 0001425  85.1409 274.9743 15.06395770144884","GP_ID":"212678394","MEAN_ELEMENT_THEORY":"SGP4","MEAN_ANOMALY":"274.9743","RA_OF_ASC_NODE":"232.5028","RCS_SIZE":"LARGE","MEAN_MOTION_DOT":"0.00000138","CLASSIFICATION_TYPE":"U","FILE":"3575050","NORAD_CAT_ID":"45054","ELEMENT_SET_NO":"999","SITE":"AFETR","CENTER_NAME":"EARTH","LAUNCH_DATE":"2020-01-29","MEAN_MOTION":"15.06395770","OBJECT_NAME":"STARLINK-1156","OBJECT_ID":"2020-006L","ECCENTRICITY":"0.00014250","PERIOD":"95.592","REV_AT_EPOCH":"14488","MEAN_MOTION_DDOT":"0.0000000000000","BSTAR":"0.00002819600000","TIME_SYSTEM":"UTC","COUNTRY_CODE":"US","EPHEMERIS_TYPE":"0"},{"TLE_LINE1":"1 45057U 20006P   22258.34153987  .00002048  00000-0  15632-3 0  9992","ARG_OF_PERICENTER":"78.4559","PERIAPSIS":"546.251","SEMIMAJOR_AXIS":"6925.337","REF_FRAME":"TEME","EPOCH":"2022-09-15T08:11:49.044768","APOAPSIS":"548.153","OBJECT_TYPE":"PAYLOAD","INCLINATION":"53.0543","DECAY_DATE":null,"GP_ID":"212641486","TLE_LINE2":"2 45057  53.0543 233.9302 0001373  78.4559 281.6584 15.06403772144847","MEAN_ELEMENT_THEORY":"SGP4","RA_OF_ASC_NODE":"233.9302","RCS_SIZE":"LARGE","CLASSIFICATION_TYPE":"U","MEAN_MOTION_DOT":"0.00002048","MEAN_ANOMALY":"281.6584","ELEMENT_SET_NO":"999","FILE":"3574601","NORAD_CAT_ID":"45057","SITE":"AFETR","LAUNCH_DATE":"2020-01-29","MEAN_MOTION":"15.06403772","CENTER_NAME":"EARTH","OBJECT_NAME":"STARLINK-1159","OBJECT_ID":"2020-006P","PERIOD":"95.592","REV_AT_EPOCH":"14484","MEAN_MOTION_DDOT":"0.0000000000000","ECCENTRICITY":"0.00013730","BSTAR":"0.00015632000000","TIME_SYSTEM":"UTC","EPHEMERIS_TYPE":"0","COUNTRY_CODE":"US"},{"SEMIMAJOR_AXIS":"6925.331","REF_FRAME":"TEME","EPOCH":"2022-09-15T15:58:54.229152","APOAPSIS":"548.097","TLE_LINE1":"1 45058U 20006Q   22258.66590543  .00002206  00000-0  16693-3 0  9995","ARG_OF_PERICENTER":"83.0180","PERIAPSIS":"546.296","MEAN_ELEMENT_THEORY":"SGP4","MEAN_MOTION_DOT":"0.00002206","RCS_SIZE":"LARGE","CLASSIFICATION_TYPE":"U","RA_OF_ASC_NODE":"232.4709","MEAN_ANOMALY":"277.0957","INCLINATION":"53.0546","OBJECT_TYPE":"PAYLOAD","DECAY_DATE":null,"GP_ID":"212678892","TLE_LINE2":"2 45058  53.0546 232.4709 0001300  83.0180 277.0957 15.06405615144894","OBJECT_NAME":"STARLINK-1162","OBJECT_ID":"2020-006Q","ELEMENT_SET_NO":"999","NORAD_CAT_ID":"45058","FILE":"3575050","MEAN_MOTION":"15.06405615","LAUNCH_DATE":"2020-01-29","CENTER_NAME":"EARTH","SITE":"AFETR","TIME_SYSTEM":"UTC","EPHEMERIS_TYPE":"0","COUNTRY_CODE":"US","MEAN_MOTION_DDOT":"0.0000000000000","REV_AT_EPOCH":"14489","PERIOD":"95.592","ECCENTRICITY":"0.00013000","BSTAR":"0.00016693000000"},{"GP_ID":"212678145","TLE_LINE2":"2 45059  53.0535 232.6764 0001380  88.0630 272.0517 15.06394718144886","OBJECT_TYPE":"PAYLOAD","INCLINATION":"53.0535","DECAY_DATE":null,"RA_OF_ASC_NODE":"232.6764","RCS_SIZE":"LARGE","MEAN_MOTION_DOT":"-0.00000422","CLASSIFICATION_TYPE":"U","MEAN_ANOMALY":"272.0517","MEAN_ELEMENT_THEORY":"SGP4","PERIAPSIS":"546.274","TLE_LINE1":"1 45059U 20006R   22258.62167980 -.00000422  00000-0 -94090-5 0  9996","ARG_OF_PERICENTER":"88.0630","EPOCH":"2022-09-15T14:55:13.134720","APOAPSIS":"548.185","SEMIMAJOR_AXIS":"6925.365","REF_FRAME":"TEME","BSTAR":"-0.00000940900000","REV_AT_EPOCH":"14488","PERIOD":"95.592","MEAN_MOTION_DDOT":"0.0000000000000","ECCENTRICITY":"0.00013800","EPHEMERIS_TYPE":"0","COUNTRY_CODE":"US","TIME_SYSTEM":"UTC","SITE":"AFETR","LAUNCH_DATE":"2020-01-29","CENTER_NAME":"EARTH","MEAN_MOTION":"15.06394718","ELEMENT_SET_NO":"999","FILE":"3575050","NORAD_CAT_ID":"45059","OBJECT_ID":"2020-006R","OBJECT_NAME":"STARLINK-1165"},{"COUNTRY_CODE":"US","EPHEMERIS_TYPE":"0","TIME_SYSTEM":"UTC","BSTAR":"0.00006024800000","ECCENTRICITY":"0.00014380","MEAN_MOTION_DDOT":"0.0000000000000","REV_AT_EPOCH":"14485","PERIOD":"95.593","OBJECT_ID":"2020-006S","OBJECT_NAME":"STARLINK-1166","MEAN_MOTION":"15.06393876","LAUNCH_DATE":"2020-01-29","CENTER_NAME":"EARTH","SITE":"AFETR","NORAD_CAT_ID":"45060","FILE":"3574601","ELEMENT_SET_NO":"999","MEAN_ANOMALY":"289.2529","MEAN_MOTION_DOT":"0.00000616","RCS_SIZE":"LARGE","CLASSIFICATION_TYPE":"U","RA_OF_ASC_NODE":"233.5764","MEAN_ELEMENT_THEORY":"SGP4","TLE_LINE2":"2 45060  53.0534 233.5764 0001438  70.8616 289.2529 15.06393876144858","GP_ID":"212641736","DECAY_DATE":null,"INCLINATION":"53.0534","OBJECT_TYPE":"PAYLOAD","APOAPSIS":"548.228","EPOCH":"2022-09-15T10:03:17.647200","REF_FRAME":"TEME","SEMIMAJOR_AXIS":"6925.367","PERIAPSIS":"546.236","ARG_OF_PERICENTER":"70.8616","TLE_LINE1":"1 45060U 20006S   22258.41895425  .00000616  00000-0  60248-4 0  9997"},{"MEAN_ANOMALY":"282.3663","RA_OF_ASC_NODE":"232.6418","MEAN_MOTION_DOT":"-0.00002443","RCS_SIZE":"LARGE","CLASSIFICATION_TYPE":"U","MEAN_ELEMENT_THEORY":"SGP4","TLE_LINE2":"2 45061  53.0531 232.6418 0001337  77.7476 282.3663 15.06409129144885","GP_ID":"212679145","DECAY_DATE":null,"OBJECT_TYPE":"PAYLOAD","INCLINATION":"53.0531","APOAPSIS":"548.111","EPOCH":"2022-09-15T15:00:31.416768","REF_FRAME":"TEME","SEMIMAJOR_AXIS":"6925.321","PERIAPSIS":"546.260","ARG_OF_PERICENTER":"77.7476","TLE_LINE1":"1 45061U 20006T   22258.62536362 -.00002443  00000-0 -14516-3 0  9991","COUNTRY_CODE":"US","EPHEMERIS_TYPE":"0","TIME_SYSTEM":"UTC","BSTAR":"-0.00014516000000","ECCENTRICITY":"0.00013370","PERIOD":"95.592","REV_AT_EPOCH":"14488","MEAN_MOTION_DDOT":"0.0000000000000","OBJECT_ID":"2020-006T","OBJECT_NAME":"STARLINK-1169","SITE":"AFETR","MEAN_MOTION":"15.06409129","LAUNCH_DATE":"2020-01-29","CENTER_NAME":"EARTH","FILE":"3575050","NORAD_CAT_ID":"45061","ELEMENT_SET_NO":"999"}];
